UNKNOWN                 
1 85061U          26061.93211029  .00004100  00000+0  16147-1 0  9996
2 85061 102.3983  58.0882 0272116  33.2591 356.5324 12.77629438566027
UNKNOWN                 
1 85100U          26060.75126337  .00000413  00000+0  13710-3 0  9994
2 85100  74.0436  76.7061 0013889 283.8146 191.9805 14.40787816644720
UNKNOWN                 
1 85106U          26061.27304817  .00000750  00000+0  86413-3 0  9993
2 85106 100.0513 171.0432 0010626 168.3670 220.9220 13.73020868613988
UNKNOWN                 
1 85151U          26061.44633146  .00026411  00000+0  32661-2 0  9999
2 85151  98.4016 294.2343 0006870 255.8387 104.2062 14.82720248491328
UNKNOWN                 
1 85210U          26060.88089293  .00000270  00000+0  29587-3 0  9999
2 85210  99.8611 209.0501 0217187 112.2323  39.3903 13.71664727613000
UNKNOWN                 
1 85217U          26061.70601917  .00003176  00000+0  84029-3 0  9991
2 85217  98.0236 155.8785 0206177 246.3546 111.5880 14.37597452639341
UNKNOWN                 
1 85237U          26054.35491965  .00013478  00000+0  26977-2 0  9999
2 85237  65.5338  24.2147 0516167 354.4749   5.0755 14.01835433618525
UNKNOWN                 
1 85238U          26060.61386637  .00000052  00000+0  78012-4 0  9998
2 85238  99.0679 352.5634 0063249 348.3431 134.9925 13.88359031621784
UNKNOWN                 
1 85246U          26061.92923213  .00002039  00000+0  73208-3 0  9997
2 85246  97.9904  62.9194 0223909  67.5456 294.9270 14.21754257634468
UNKNOWN                 
1 85373U          26061.37031545  .00002454  00000+0  16748-2 0  9991
2 85373 100.4244 113.4894 0050388  30.0759  32.4939 14.00392417623272
UNKNOWN                 
1 85425U          26033.71181694  .00000000  00000+0  00000+0 0  9993
2 85425  51.2937 156.4139 6775828 239.1756 342.8295  3.07857636    06
UNKNOWN                 
1 87014U          26061.41988395  .00002909  00000+0  44439-2 0  9997
2 87014 100.4827  35.1278 0053173  43.2118 110.1612 13.52299095601686
